[{"OBJECT_NAME":"STARLINK-32753","OBJECT_ID":"2024-254V","EPOCH":"2026-03-09T05:09:56.637504","MEAN_MOTION":15.27576831,"ECCENTRICITY":0.00016837,"INCLINATION":42.9998,"RA_OF_ASC_NODE":18.7697,"ARG_OF_PERICENTER":279.1962,"MEAN_ANOMALY":80.87,"EPHEMERIS_TYPE":0,"CLASSIFICATION_TYPE":"U","NORAD_CAT_ID":62481,"ELEMENT_SET_NO":999,"REV_AT_EPOCH":6758,"BSTAR":0.0010958864,"MEAN_MOTION_DOT":0.00030014,"MEAN_MOTION_DDOT":0},{"OBJECT_NAME":"DMSP 5D-2 F13 DEB","OBJECT_ID":"1995-015HL","EPOCH":"2026-02-09T02:06:19.247328","MEAN_MOTION":15.12822218,"ECCENTRICITY":0.00117732,"INCLINATION":98.8603,"RA_OF_ASC_NODE":96.8879,"ARG_OF_PERICENTER":223.037,"MEAN_ANOMALY":136.9936,"EPHEMERIS_TYPE":0,"CLASSIFICATION_TYPE":"U","NORAD_CAT_ID":42294,"ELEMENT_SET_NO":999,"REV_AT_EPOCH":55633,"BSTAR":0.010466292,"MEAN_MOTION_DOT":0.00188804,"MEAN_MOTION_DDOT":0}]
